{
  "type": "FeatureCollection",
  "features": [
    {
      "type": "Feature",
      "properties": {
        "norad_id": 34885,
        "name": "COSMOS 2251 DEB",
        "group": "cosmos-2251-debris",
        "lat": -45.7802358265586,
        "lon": -178.2367753982212,
        "alt_km": 717.6326736286601,
        "timestamp": "2025-12-04T07:39:36.527135+00:00",
        "meta_object_name": "COSMOS 2251 DEB",
        "meta_object_id": "1993-036ACY",
        "meta_epoch": "2025-12-03T19:00:17.073792",
        "meta_mean_motion": 14.51427994,
        "meta_eccentricity": 0.00154582,
        "meta_inclination": 74.0311,
        "meta_ra_of_asc_node": 199.8683,
        "meta_arg_of_pericenter": 285.5707,
        "meta_mean_anomaly": 152.09,
        "meta_ephemeris_type": 0,
        "meta_classification_type": "U",
        "meta_norad_cat_id": 34885,
        "meta_element_set_no": 999,
        "meta_rev_at_epoch": 87349,
        "meta_bstar": 0.00094354329,
        "meta_mean_motion_dot": 3.746e-05,
        "meta_mean_motion_ddot": 0,
        "tle_line1": "1 34885U 93036ACY 25337.79186428  .00003746  00000+0  94354-3 0  9991",
        "tle_line2": "2 34885  74.0311 199.8683 0015458 285.5707 152.0900 14.51427994873491"
      },
      "geometry": {
        "type": "Point",
        "coordinates": [
          -178.2367753982212,
          -45.7802358265586
        ]
      }
    },
    {
      "type": "Feature",
      "properties": {
        "norad_id": 34886,
        "name": "COSMOS 2251 DEB",
        "group": "cosmos-2251-debris",
        "lat": -57.7105534622429,
        "lon": 172.12559928267618,
        "alt_km": 460.378045414961,
        "timestamp": "2025-12-04T07:39:36.527144+00:00",
        "meta_object_name": "COSMOS 2251 DEB",
        "meta_object_id": "1993-036ACZ",
        "meta_epoch": "2025-12-02T21:33:25.254144",
        "meta_mean_motion": 15.36781254,
        "meta_eccentricity": 0.00310818,
        "meta_inclination": 73.9522,
        "meta_ra_of_asc_node": 202.2947,
        "meta_arg_of_pericenter": 28.5971,
        "meta_mean_anomaly": 331.6931,
        "meta_ephemeris_type": 0,
        "meta_classification_type": "U",
        "meta_norad_cat_id": 34886,
        "meta_element_set_no": 999,
        "meta_rev_at_epoch": 62847,
        "meta_bstar": 0.0022652604,
        "meta_mean_motion_dot": 0.00083623,
        "meta_mean_motion_ddot": 0,
        "tle_line1": "1 34886U 93036ACZ 25336.89820896  .00083623  00000+0  22653-2 0  9990",
        "tle_line2": "2 34886  73.9522 202.2947 0031081  28.5971 331.6931 15.36781254628475"
      },
      "geometry": {
        "type": "Point",
        "coordinates": [
          172.12559928267618,
          -57.7105534622429
        ]
      }
    },
    {
      "type": "Feature",
      "properties": {
        "norad_id": 34907,
        "name": "COSMOS 2251 DEB",
        "group": "cosmos-2251-debris",
        "lat": 28.36396101712312,
        "lon": -122.23316095994998,
        "alt_km": 465.30456818261246,
        "timestamp": "2025-12-04T07:39:36.527153+00:00",
        "meta_object_name": "COSMOS 2251 DEB",
        "meta_object_id": "1993-036ADC",
        "meta_epoch": "2025-12-03T07:33:59.709024",
        "meta_mean_motion": 15.36059766,
        "meta_eccentricity": 0.0017302,
        "meta_inclination": 73.9746,
        "meta_ra_of_asc_node": 68.8586,
        "meta_arg_of_pericenter": 354.083,
        "meta_mean_anomaly": 6.0168,
        "meta_ephemeris_type": 0,
        "meta_classification_type": "U",
        "meta_norad_cat_id": 34907,
        "meta_element_set_no": 999,
        "meta_rev_at_epoch": 87828,
        "meta_bstar": 0.0090238,
        "meta_mean_motion_dot": 0.00332594,
        "meta_mean_motion_ddot": 0,
        "tle_line1": "1 34907U 93036ADC 25337.31527441  .00332594  00000+0  90238-2 0  9990",
        "tle_line2": "2 34907  73.9746  68.8586 0017302 354.0830   6.0168 15.36059766878280"
      },
      "geometry": {
        "type": "Point",
        "coordinates": [
          -122.23316095994998,
          28.36396101712312
        ]
      }
    },
    {
      "type": "Feature",
      "properties": {
        "norad_id": 34908,
        "name": "COSMOS 2251 DEB",
        "group": "cosmos-2251-debris",
        "lat": 71.29807954375838,
        "lon": 96.72951933143196,
        "alt_km": 733.5763986139327,
        "timestamp": "2025-12-04T07:39:36.527162+00:00",
        "meta_object_name": "COSMOS 2251 DEB",
        "meta_object_id": "1993-036ADD",
        "meta_epoch": "2025-12-03T22:05:15.258336",
        "meta_mean_motion": 14.37358139,
        "meta_eccentricity": 0.00398504,
        "meta_inclination": 74.0588,
        "meta_ra_of_asc_node": 39.8623,
        "meta_arg_of_pericenter": 58.9751,
        "meta_mean_anomaly": 117.9274,
        "meta_ephemeris_type": 0,
        "meta_classification_type": "U",
        "meta_norad_cat_id": 34908,
        "meta_element_set_no": 999,
        "meta_rev_at_epoch": 87152,
        "meta_bstar": 0.00089543498,
        "meta_mean_motion_dot": 2.673e-05,
        "meta_mean_motion_ddot": 0,
        "tle_line1": "1 34908U 93036ADD 25337.92031549  .00002673  00000+0  89543-3 0  9997",
        "tle_line2": "2 34908  74.0588  39.8623 0039850  58.9751 117.9274 14.37358139871527"
      },
      "geometry": {
        "type": "Point",
        "coordinates": [
          96.72951933143196,
          71.29807954375838
        ]
      }
    },
    {
      "type": "Feature",
      "properties": {
        "norad_id": 34909,
        "name": "COSMOS 2251 DEB",
        "group": "cosmos-2251-debris",
        "lat": 64.44920768111982,
        "lon": 129.97139364979824,
        "alt_km": 686.357743714334,
        "timestamp": "2025-12-04T07:39:36.527171+00:00",
        "meta_object_name": "COSMOS 2251 DEB",
        "meta_object_id": "1993-036ADE",
        "meta_epoch": "2025-12-02T16:20:39.593184",
        "meta_mean_motion": 14.77677518,
        "meta_eccentricity": 0.00852182,
        "meta_inclination": 74.0135,
        "meta_ra_of_asc_node": 96.3432,
        "meta_arg_of_pericenter": 234.3085,
        "meta_mean_anomaly": 125.0138,
        "meta_ephemeris_type": 0,
        "meta_classification_type": "U",
        "meta_norad_cat_id": 34909,
        "meta_element_set_no": 999,
        "meta_rev_at_epoch": 66703,
        "meta_bstar": 0.00090528683,
        "meta_mean_motion_dot": 6.857e-05,
        "meta_mean_motion_ddot": 0,
        "tle_line1": "1 34909U 93036ADE 25336.68101381  .00006857  00000+0  90529-3 0  9996",
        "tle_line2": "2 34909  74.0135  96.3432 0085218 234.3085 125.0138 14.77677518667038"
      },
      "geometry": {
        "type": "Point",
        "coordinates": [
          129.97139364979824,
          64.44920768111982
        ]
      }
    },
    {
      "type": "Feature",
      "properties": {
        "norad_id": 34910,
        "name": "COSMOS 2251 DEB",
        "group": "cosmos-2251-debris",
        "lat": -42.10670311565,
        "lon": 99.55580789055699,
        "alt_km": 1052.4622901271387,
        "timestamp": "2025-12-04T07:39:36.527180+00:00",
        "meta_object_name": "COSMOS 2251 DEB",
        "meta_object_id": "1993-036ADF",
        "meta_epoch": "2025-12-02T16:32:32.334432",
        "meta_mean_motion": 13.37643089,
        "meta_eccentricity": 0.0468107,
        "meta_inclination": 73.8742,
        "meta_ra_of_asc_node": 117.2836,
        "meta_arg_of_pericenter": 237.8282,
        "meta_mean_anomaly": 146.7075,
        "meta_ephemeris_type": 0,
        "meta_classification_type": "U",
        "meta_norad_cat_id": 34910,
        "meta_element_set_no": 999,
        "meta_rev_at_epoch": 81390,
        "meta_bstar": 0.001305183,
        "meta_mean_motion_dot": 1.267e-05,
        "meta_mean_motion_ddot": 0,
        "tle_line1": "1 34910U 93036ADF 25336.68926313  .00001267  00000+0  13052-2 0  9993",
        "tle_line2": "2 34910  73.8742 117.2836 0468107 237.8282 146.7075 13.37643089813901"
      },
      "geometry": {
        "type": "Point",
        "coordinates": [
          99.55580789055699,
          -42.10670311565
        ]
      }
    },
    {
      "type": "Feature",
      "properties": {
        "norad_id": 34911,
        "name": "COSMOS 2251 DEB",
        "group": "cosmos-2251-debris",
        "lat": 3.016228421347177,
        "lon": -98.3440346373888,
        "alt_km": 644.170937617042,
        "timestamp": "2025-12-04T07:39:36.527189+00:00",
        "meta_object_name": "COSMOS 2251 DEB",
        "meta_object_id": "1993-036ADG",
        "meta_epoch": "2025-12-03T06:00:27.635040",
        "meta_mean_motion": 14.59344505,
        "meta_eccentricity": 0.008317,
        "meta_inclination": 74.0412,
        "meta_ra_of_asc_node": 262.8282,
        "meta_arg_of_pericenter": 30.7099,
        "meta_mean_anomaly": 119.8806,
        "meta_ephemeris_type": 0,
        "meta_classification_type": "U",
        "meta_norad_cat_id": 34911,
        "meta_element_set_no": 999,
        "meta_rev_at_epoch": 88448,
        "meta_bstar": 0.00027459,
        "meta_mean_motion_dot": 1.332e-05,
        "meta_mean_motion_ddot": 0,
        "tle_line1": "1 34911U 93036ADG 25337.25031985  .00001332  00000+0  27459-3 0  9990",
        "tle_line2": "2 34911  74.0412 262.8282 0083170  30.7099 119.8806 14.59344505884480"
      },
      "geometry": {
        "type": "Point",
        "coordinates": [
          -98.3440346373888,
          3.016228421347177
        ]
      }
    }
  ]
}